BEIDOU-2 IGSO-5         
1 37948U 11073A   26183.72937883 -.00000128  00000+0  00000+0 0  9990
2 37948  47.6496 271.3544 0114527 222.0502 141.5350  1.00270596 53296
LUCH-5A                 
1 37951U 11074B   26196.44756497 -.00000064  00000+0  00000+0 0  9997
2 37951   8.8236  73.3906 0002632  60.7704 127.2447  1.00273114 53339
BEIDOU-2 G5             
1 38091U 12008A   26196.63994751  .00000045  00000+0  00000+0 0  9997
2 38091   3.6424  69.5108 0007299 268.4892 244.5228  1.00270381 52654
BEIDOU-2 M3             
1 38250U 12018A   26194.49964644 -.00000069  00000+0  00000+0 0  9992
2 38250  55.7337 303.9888 0020987 272.3154  87.4648  1.86229839 96436
BEIDOU-2 M4             
1 38251U 12018B   26194.96895387 -.00000068  00000+0  00000+0 0  9991
2 38251  55.6331 303.1847 0012125 272.3588  87.5259  1.86229366 96448
SES-5                   
1 38652U 12036A   26196.55807343  .00000023  00000+0  00000+0 0  9998
2 38652   0.0459 320.9849 0001942 152.2583  26.0410  1.00271201 44747
BEIDOU-2 M6             
1 38775U 12050B   26196.28944259 -.00000042  00000+0  00000+0 0  9990
2 38775  56.5688  61.9653 0012896   1.6150 358.4640  1.86230879 93836
GSAT-10                 
1 38779U 12051B   26196.57352841 -.00000175  00000+0  00000+0 0  9994
2 38779   0.0904 264.6626 0007401 189.5415 128.6709  1.00272748 50386
NAVSTAR 67 (USA 239)    
1 38833U 12053A   26195.73730407  .00000002  00000+0  00000+0 0  9990
2 38833  53.5896 142.4706 0181992  66.2134 295.6400  2.00567894 99992
GSAT0103 (GALILEO-FM3)  
1 38857U 12055A   26194.28553299 -.00000030  00000+0  00000+0 0  9991
2 38857  55.8215 100.8292 0003756 311.8113  48.1723  1.70473329 85453
BEIDOU-2 G6             
1 38953U 12059A   26196.64497419 -.00000188  00000+0  00000+0 0  9999
2 38953   4.4908  73.2097 0008728 327.1870 209.2686  1.00273623 50198
LUCH-5B                 
1 38977U 12061A   26196.41122167 -.00000152  00000+0  00000+0 0  9999
2 38977  10.5430  49.5962 0003919 147.7446 227.6811  1.00270368 49893
COSMOS 2485 [GLONASS-M] 
1 39155U 13019A   26196.06559626 -.00000009  00000+0  00000+0 0  9998
2 39155  65.4351  72.6696 0022638 231.0829 128.7913  2.13103174102872
NAVSTAR 68 (USA 242)    
1 39166U 13023A   26196.60220496 -.00000009  00000+0  00000+0 0  9995
2 39166  54.4824 267.8149 0141387  51.1134 310.2184  2.00563312 96455
IRNSS-1A                
1 39199U 13034A   26191.72043649  .00000047  00000+0  00000+0 0  9995
2 39199  35.7704  63.5328 0017567 183.4462 356.2994  1.00281941 47601
NAVSTAR 69 (USA 248)    
1 39533U 14008A   26195.10826862  .00000006  00000+0  00000+0 0  9996
2 39533  53.6576 148.2217 0084100 231.5400 127.6603  2.00561465 90227
ASTRA 5B                
1 39617U 14011B   26196.56171344  .00000127  00000+0  00000+0 0  9996
2 39617   0.0761 302.3515 0001858 178.4748  38.2718  1.00268169 44956
COSMOS 2492 [GLONASS-M] 
1 39620U 14012A   26195.55517278 -.00000062  00000+0  00000+0 0  9998
2 39620  65.2800 313.0063 0010322 317.7862  42.1441  2.13103205 95828
IRNSS-1B                
1 39635U 14017A   26195.71238846  .00000134  00000+0  00000+0 0  9997
2 39635  28.8764 239.9282 0022292 191.6992 172.5370  1.00275623 45079
LUCH-5V                 
1 39727U 14023A   26196.64705420 -.00000282  00000+0  00000+0 0  9991
2 39727   5.2005  69.4418 0002082  84.8730 106.8364  1.00273464 44649
NAVSTAR 70 (USA 251)    
1 39741U 14026A   26196.38150432 -.00000095  00000+0  00000+0 0  9990
2 39741  56.4831 330.4202 0038141 325.7796  33.9711  2.00558840 89107
COSMOS 2500 [GLONASS-M] 
1 40001U 14032A   26196.19383985 -.00000061  00000+0  00000+0 0  9991
2 40001  65.2146 312.7295 0008262 190.4247 169.5708  2.13105781 94057
NAVSTAR 71 (USA 256)    
1 40105U 14045A   26195.97463324 -.00000025  00000+0  00000+0 0  9991
2 40105  55.3710  87.3578 0034406 118.3743 242.0239  2.00560212 86638
GSAT0201 (GALILEO 5)    
1 40128U 14050A   26196.44416801 -.00000031  00000+0  00000+0 0  9990
2 40128  48.8437 272.2762 1678655 180.5299 179.3301  1.85519399 78842
GSAT0202 (GALILEO 6)    
1 40129U 14050B   26195.08266193 -.00000018  00000+0  00000+0 0  9992
2 40129  48.8629 271.4179 1679589 181.1559 178.4672  1.85520425 80983
IRNSS-1C                
1 40269U 14061A   26195.70643862 -.00000175  00000+0  00000+0 0  9994
2 40269   6.5853  88.4083 0022094   5.4026 176.1158  1.00272415 42967
NAVSTAR 72 (USA 258)    
1 40294U 14068A   26195.84288523 -.00000065  00000+0  00000+0 0  9991
2 40294  57.0066  29.8902 0067406  72.2885 288.4955  2.00553162 85761
COSMOS 2501 [GLONASS-K] 
1 40315U 14075A   26195.04843601  .00000065  00000+0  00000+0 0  9998
2 40315  63.6185 189.4424 0022586 212.6579 147.2095  2.13101105 90428
NAVSTAR 73 (USA 260)    
1 40534U 15013A   26195.98439796  .00000050  00000+0  00000+0 0  9997
2 40534  53.1661 203.0279 0110344  40.3791 320.4565  2.00549648 82384
GSAT0203 (GALILEO 7)    
1 40544U 15017A   26195.78217272 -.00000099  00000+0  00000+0 0  9997
2 40544  56.7770 340.8444 0002640 255.9596 103.9964  1.70476177 69671
GSAT0204 (GALILEO 8)    
1 40545U 15017B   26194.86487460 -.00000096  00000+0  00000+0 0  9991
2 40545  56.7839 340.8880 0002751 234.6933 125.2671  1.70475628 32700
