OBJECT_NAME,OBJECT_ID,EPOCH,MEAN_MOTION,ECCENTRICITY,INCLINATION,RA_OF_ASC_NODE,ARG_OF_PERICENTER,MEAN_ANOMALY,EPHEMERIS_TYPE,CLASSIFICATION_TYPE,NORAD_CAT_ID,ELEMENT_SET_NO,REV_AT_EPOCH,BSTAR,MEAN_MOTION_DOT,MEAN_MOTION_DDOT
BEIDOU-2 IGSO-5 (C10),2011-073A,2026-07-02T17:30:18.330912,1.00270596,.01145273,47.6496,271.3544,222.0502,141.5350,0,U,37948,999,5329,0,-.128E-5,0
LUCH 5A (SDCM/PRN 140),2011-074B,2026-07-15T10:44:29.613408,1.00273114,.00026323,8.8236,73.3906,60.7704,127.2447,0,U,37951,999,5333,0,-.64E-6,0
BEIDOU-2 G5 (C05),2012-008A,2026-07-15T15:21:31.464864,1.00270381,.00072996,3.6424,69.5108,268.4892,244.5228,0,U,38091,999,5265,0,.45E-6,0
BEIDOU-2 M3 (C11),2012-018A,2026-07-13T11:59:29.452416,1.86229839,.00209873,55.7337,303.9888,272.3154,87.4648,0,U,38250,999,9643,0,-.69E-6,0
BEIDOU-2 M4 (C12),2012-018B,2026-07-13T23:15:17.614368,1.86229366,.00121259,55.6331,303.1847,272.3588,87.5259,0,U,38251,999,9644,0,-.68E-6,0
SES-5 (EGNOS/PRN 136),2012-036A,2026-07-15T13:23:37.544352,1.00271201,.00019429,0.0459,320.9849,152.2583,26.0410,0,U,38652,999,4474,0,.23E-6,0
BEIDOU-2 M6 (C14),2012-050B,2026-07-15T06:56:47.839776,1.86230879,.00128961,56.5688,61.9653,1.6150,358.4640,0,U,38775,999,9383,0,-.42E-6,0
GSAT-10 (GAGAN/PRN 128),2012-051B,2026-07-15T13:45:52.854624,1.00272748,.00074015,0.0904,264.6626,189.5415,128.6709,0,U,38779,999,5038,0,-.175E-5,0
GPS BIIF-3  (PRN 24),2012-053A,2026-07-14T17:41:43.071648,2.00567894,.01819929,53.5896,142.4706,66.2134,295.6400,0,U,38833,999,9999,0,.2E-7,0
GSAT0103 (GALILEO-FM3),2012-055A,2026-07-13T06:51:10.050336,1.70473329,.0003756,55.8215,100.8292,311.8113,48.1723,0,U,38857,999,8545,0,-.3E-6,0
BEIDOU-2 G6 (C02),2012-059A,2026-07-15T15:28:45.770016,1.00273623,.00087286,4.4908,73.2097,327.1870,209.2686,0,U,38953,999,5019,0,-.188E-5,0
LUCH 5B (SDCM/PRN 125),2012-061A,2026-07-15T09:52:09.552288,1.00270368,.0003919,10.5430,49.5962,147.7446,227.6811,0,U,38977,999,4989,0,-.152E-5,0
COSMOS 2485 (747),2013-019A,2026-07-15T01:34:27.516864,2.13103174,.00226385,65.4351,72.6696,231.0829,128.7913,0,U,39155,999,10287,0,-.9E-7,0
GPS BIIF-4  (PRN 27),2013-023A,2026-07-15T14:27:10.508544,2.00563312,.01413879,54.4824,267.8149,51.1134,310.2184,0,U,39166,999,9645,0,-.9E-7,0
IRNSS-1A,2013-034A,2026-07-10T17:17:25.712736,1.00281941,.0017567,35.7704,63.5328,183.4462,356.2994,0,U,39199,999,4760,0,.47E-6,0
GPS BIIF-5  (PRN 30),2014-008A,2026-07-14T02:35:54.408768,2.00561465,.00841009,53.6576,148.2217,231.5400,127.6603,0,U,39533,999,9022,0,.6E-7,0
ASTRA 5B (EGNOS/PRN 123),2014-011B,2026-07-15T13:28:52.041216,1.00268169,.00018586,0.0761,302.3515,178.4748,38.2718,0,U,39617,999,4495,0,.127E-5,0
COSMOS 2492 (754),2014-012A,2026-07-14T13:19:26.928192,2.13103205,.00103225,65.2800,313.0063,317.7862,42.1441,0,U,39620,999,9582,0,-.62E-6,0
IRNSS-1B,2014-017A,2026-07-14T17:05:50.362944,1.00275623,.00222921,28.8764,239.9282,191.6992,172.5370,0,U,39635,999,4507,0,.134E-5,0
LUCH 5V (SDCM/PRN 141),2014-023A,2026-07-15T15:31:45.482880,1.00273464,.00020823,5.2005,69.4418,84.8730,106.8364,0,U,39727,999,4464,0,-.282E-5,0
GPS BIIF-6  (PRN 06),2014-026A,2026-07-15T09:09:21.973248,2.00558840,.00381411,56.4831,330.4202,325.7796,33.9711,0,U,39741,999,8910,0,-.95E-6,0
COSMOS 2500 (755),2014-032A,2026-07-15T04:39:07.763040,2.13105781,.00082621,65.2146,312.7295,190.4247,169.5708,0,U,40001,999,9405,0,-.61E-6,0
GPS BIIF-7  (PRN 09),2014-045A,2026-07-14T23:23:28.311936,2.00560212,.0034406,55.3710,87.3578,118.3743,242.0239,0,U,40105,999,8663,0,-.25E-6,0
GSAT0201 (GALILEO 5),2014-050A,2026-07-15T10:39:36.116064,1.85519399,.16786554,48.8437,272.2762,180.5299,179.3301,0,U,40128,999,7884,0,-.31E-6,0
GSAT0202 (GALILEO 6),2014-050B,2026-07-14T01:59:01.990752,1.85520425,.1679589,48.8629,271.4179,181.1559,178.4672,0,U,40129,999,8098,0,-.18E-6,0
IRNSS-1C,2014-061A,2026-07-14T16:57:16.296768,1.00272415,.0022094,6.5853,88.4083,5.4026,176.1158,0,U,40269,999,4296,0,-.175E-5,0
GPS BIIF-8  (PRN 03),2014-068A,2026-07-14T20:13:45.283872,2.00553162,.00674067,57.0066,29.8902,72.2885,288.4955,0,U,40294,999,8576,0,-.65E-6,0
COSMOS 2501 (702K),2014-075A,2026-07-14T01:09:44.871264,2.13101105,.0022586,63.6185,189.4424,212.6579,147.2095,0,U,40315,999,9042,0,.65E-6,0
GPS BIIF-9  (PRN 26),2015-013A,2026-07-14T23:37:31.983744,2.00549648,.01103446,53.1661,203.0279,40.3791,320.4565,0,U,40534,999,8238,0,.5E-6,0
GSAT0203 (GALILEO 7),2015-017A,2026-07-14T18:46:19.723008,1.70476177,.00026409,56.7770,340.8444,255.9596,103.9964,0,U,40544,999,6967,0,-.99E-6,0
GSAT0204 (GALILEO 8),2015-017B,2026-07-13T20:45:25.165440,1.70475628,.00027511,56.7839,340.8880,234.6933,125.2671,0,U,40545,999,3270,0,-.96E-6,0
